[{"OBJECT_NAME":"KUIPER-00053","OBJECT_ID":"2025-134P","EPOCH":"2026-03-09T15:23:04.985088","MEAN_MOTION":14.79936457,"ECCENTRICITY":7.06e-5,"INCLINATION":51.9009,"RA_OF_ASC_NODE":223.311,"ARG_OF_PERICENTER":157.9369,"MEAN_ANOMALY":202.1623,"EPHEMERIS_TYPE":0,"CLASSIFICATION_TYPE":"U","NORAD_CAT_ID":64513,"ELEMENT_SET_NO":999,"REV_AT_EPOCH":4020,"BSTAR":0.00042309,"MEAN_MOTION_DOT":3.006e-5,"MEAN_MOTION_DDOT":0},{"OBJECT_NAME":"SL-14 R\/B","OBJECT_ID":"1983-099B","EPOCH":"2026-03-09T17:04:20.967456","MEAN_MOTION":14.8623395,"ECCENTRICITY":0.00204236,"INCLINATION":82.5407,"RA_OF_ASC_NODE":142.538,"ARG_OF_PERICENTER":134.9475,"MEAN_ANOMALY":225.3402,"EPHEMERIS_TYPE":0,"CLASSIFICATION_TYPE":"U","NORAD_CAT_ID":14373,"ELEMENT_SET_NO":999,"REV_AT_EPOCH":27262,"BSTAR":6.6267087e-5,"MEAN_MOTION_DOT":6.09e-6,"MEAN_MOTION_DDOT":0}]
